"Telesto:Saturn XIII:1980 S 13" "Sol/Saturn"
# Leading Lagrange point of Tethys
{
	Class "minormoon"
	Texture		"asteroid.jpg"
	SemiAxes [ 15 12.5 7.5 ]

	EllipticalOrbit
	{
	Period		1.887802
	SemiMajorAxis	294660
	Eccentricity	0.0010
	Inclination	1.170	#
	AscendingNode	188.718	#
	ArgOfPericenter	358.944	# J2000.0
	MeanAnomaly     18.554	#
	}

	Obliquity		  1.2
	EquatorAscendingNode	 80.8
	RotationOffset		306.0

	Albedo 1.0
}

"Calypso:Saturn XIV:1980 S 25" "Sol/Saturn"
# Trailing Lagrange point of Tethys
{
	Class "minormoon"
	Texture 	"asteroid.jpg"
	SemiAxes [ 15 8 8 ]

	EllipticalOrbit
	{
	Period		1.887802
	SemiMajorAxis	294660
	Eccentricity	0.0005
	Inclination	1.472	#
	AscendingNode	273.860	#
	ArgOfPericenter	186.307	# J2000.0
	MeanAnomaly     348.156	#
	}

	Obliquity		  1.6	#
	EquatorAscendingNode	 12.4	# J2000.0
	RotationOffset		255

	Albedo 0.7
}

"Helene:Saturn XII:1980 S 6" "Sol/Saturn"
# Leading Lagrange point of Dione
{
	Class "minormoon"
	Texture	 	"asteroid.jpg"
	SemiAxes [ 18 16 15 ]

	EllipticalOrbit
	{
	Period		2.736915
	SemiMajorAxis	377400
	Eccentricity	0.0001
	Inclination	0.202	#
	AscendingNode	121.154	#
	ArgOfPericenter	48.574	# J2000.0
	MeanAnomaly     19.782	# 
	}

	RotationOffset		 10

	Albedo 0.6
}


# Minor moons of Uranus

"Cordelia:Uranus VI:1986 U 7" "Sol/Uranus"
{
	Class "minormoon"
	Texture	 	"asteroid.jpg"
	SemiAxes [ 25 18 18 ]

	EllipticalOrbit
	{
	Period		0.3350331
	SemiMajorAxis	49752
	Eccentricity	0.0003
	Inclination	0.085
	AscendingNode	307.256	#
	ArgOfPericenter	276.012	# J2000.0
	MeanAnomaly     352.546	#
	}
	
	RotationOffset		 36

	Albedo 0.07
}

"Ophelia:Uranus VII:1986 U 8" "Sol/Uranus"
{
	Class "minormoon"
	Texture	 	"asteroid.jpg"
	SemiAxes [ 27 19 19 ]

	EllipticalOrbit
	{
	Period		0.3764089
	SemiMajorAxis	53764
	Eccentricity	0.0099
	Inclination	0.104
	AscendingNode	92.308	#
	ArgOfPericenter	165.041	# J2000.0
	MeanAnomaly     78.064	#
	}
	
	RotationOffset		155

	Albedo 0.07
}

"Bianca:Uranus VIII:1986 U 9" "Sol/Uranus"
{
	Class "minormoon"
	Texture	 	"asteroid.jpg"
	SemiAxes [ 32 23 23 ]

	EllipticalOrbit
	{
	Period		0.4345772
	SemiMajorAxis	59165
	Eccentricity	0.0009
	Inclination	0.193
	AscendingNode	242.850	#
	ArgOfPericenter	24.255	# J2000.0
	MeanAnomaly     324.540	#
	}
	
	RotationOffset		 52

	Albedo 0.07
}

"Cressida:Uranus IX:1986 U 3" "Sol/Uranus"
{
	Class "minormoon"
	Texture	 	"asteroid.jpg"
	SemiAxes [ 46 37 37 ]

	EllipticalOrbit
	{
	Period		0.4635700
	SemiMajorAxis	61777
	Eccentricity	0.0004
	Inclination	0.006
	AscendingNode	112.262	#
	ArgOfPericenter	184.425	# J2000.0
	MeanAnomaly     3.135	#
	}

	
	RotationOffset		120

	Albedo 0.07
}

"Desdemona:Uranus X:1986 U 6" "Sol/Uranus"
{
	Class "minormoon"
	Texture	 	"asteroid.jpg"
	SemiAxes [ 45 27 27 ]

	EllipticalOrbit
	{
	Period		0.4736510
	SemiMajorAxis	62659
	Eccentricity	0.0001
	Inclination	0.113
	AscendingNode	133.615	#
	ArgOfPericenter	141.145	# J2000.0
	MeanAnomaly     357.199	#
	}

	RotationOffset		  92
	
	Albedo 0.07
}

"Juliet:Uranus XI:1986 U 2" "Sol/Uranus"
{
	Class "minormoon"
	Texture	 	"asteroid.jpg"
	SemiAxes [ 75 37 37 ]

	EllipticalOrbit
	{
	Period		0.4930660
	SemiMajorAxis	64358
	Eccentricity	0.0007
	Inclination	0.065
	AscendingNode	332.582	#
	ArgOfPericenter	32.168 # J2000.0
	MeanAnomaly     51.564	#
	}
	
	RotationOffset		236

	Albedo 0.07
}

"Portia:Uranus XII:1986 U 1" "Sol/Uranus"
{
	Class "minormoon"
	Texture	 	"asteroid.jpg"
	SemiAxes [ 78 63 63 ]

	EllipticalOrbit
	{
	Period		0.5131958
	SemiMajorAxis	66097
	Eccentricity	0.0001
	Inclination	0.059
	AscendingNode	308.717	#
	ArgOfPericenter	24.520	# J2000.0
	MeanAnomaly     356.184	#
	}
	
	RotationOffset		149

	Albedo 0.07
}

"Rosalind:Uranus XIII:1986 U 4" "Sol/Uranus"
{
	Class "minormoon"
	Texture	 	"asteroid.jpg"
	Mesh		"asteroid.cms"
	Radius		36

	EllipticalOrbit
	{
	Period		0.5584589
	SemiMajorAxis	69927
	Eccentricity	0.0001
	Inclination	0.279
	AscendingNode	206.572	#
	ArgOfPericenter	180.858	# J2000.0
	MeanAnomaly     9.041	#
	}
	
	RotationOffset		216

	Albedo 0.07
}

"Belinda:Uranus XIV:1986 U 5" "Sol/Uranus"
{
	Class "minormoon"
	Texture	 	"asteroid.jpg"
	SemiAxes [ 64 32 32 ]

	EllipticalOrbit
	{
	Period		0.6235248
	SemiMajorAxis	75255
	Eccentricity	0.0001
	Inclination	0.031
	AscendingNode	277.820	#
	ArgOfPericenter	119.908	# J2000.0
	MeanAnomaly     6.896	#
	}
	
	RotationOffset		225

	Albedo 0.07
}

"Puck:Uranus XV:1985 U 1" "Sol/Uranus"
{
	Class "minormoon"
	Texture	 	"asteroid.jpg"
	Mesh		"asteroid.cms"
	Radius		81

	EllipticalOrbit
	{
	Period		0.7618321
	SemiMajorAxis	86004
	Eccentricity	0.0001
	Inclination	0.319
	AscendingNode	214.713	#
	ArgOfPericenter	33.582	# J2000.0
	MeanAnomaly     12.990	#
	}
	
	RotationOffset		 81

	Albedo 0.07
}

"Caliban:Uranus XVI:1997 U 1" "Sol/Uranus"
{
	Class "minormoon"
	Texture	 	"asteroid.jpg"
	Mesh		"asteroid.cms"
	Radius		49

	EllipticalOrbit
	{
	Period		579.73
	SemiMajorAxis	7231000
	Eccentricity	0.1587
	Inclination	42.491	#
	AscendingNode	7.152	#
	ArgOfPericenter	328.345	# J2000.0
	MeanAnomaly     26.273	#
	}

	RotationPeriod  10   # Guess

	Albedo 0.07
}

"Stephano:Uranus XX:1999 U 2" "Sol/Uranus"
{
	Class "minormoon"
	Texture	 	"asteroid.jpg"
	Mesh		"asteroid.cms"
	Radius		10

	EllipticalOrbit
	{
	Period		677.36
	SemiMajorAxis	8004000
	Eccentricity	0.2292
	Inclination	47.483	#
	AscendingNode	18.306	#
	ArgOfPericenter	358.810	# J2000.0
	MeanAnomaly     255.381	#
	}

	RotationPeriod  10   # Guess

	Albedo 0.07
}

"Sycorax:Uranus XVII:1997 U 2" "Sol/Uranus"
{
	Class "minormoon"
	Texture	 	"asteroid.jpg"
	Mesh		"asteroid.cms"
	Radius		95

	EllipticalOrbit
	{
	Period		1288.30
	SemiMajorAxis	12179000
	Eccentricity	0.5224
	Inclination	82.190	#
	AscendingNode	27.683	#
	ArgOfPericenter	285.483	# J2000.0
	MeanAnomaly     261.598	#
	}

	RotationPeriod  10   # Guess

	Albedo 0.07
}

"Prospero:Uranus XVIII:1999 U 3" "Sol/Uranus"
{
	Class "minormoon"
	Texture	 	"asteroid.jpg"
	Mesh		"asteroid.cms"
	Radius		15

	EllipticalOrbit
	{
	Period		1978.29
	SemiMajorAxis	16256000
	Eccentricity	0.4448
	Inclination	112.068	#
	AscendingNode	16.124	#
	ArgOfPericenter	21.033	# J2000.0
	MeanAnomaly     247.473	#
	}

	RotationPeriod  10   # Guess

	Albedo 0.07
}

"Setebos:Uranus XIX:1999 U 1" "Sol/Uranus"
{
	Class "minormoon"
	Texture	 	"asteroid.jpg"
	Mesh		"asteroid.cms"
	Radius		15

	EllipticalOrbit
	{
	Period		2225.21
	SemiMajorAxis	17418000
	Eccentricity	0.5914
	Inclination	79.227	#
	AscendingNode	33.869	#
	ArgOfPericenter	275.958	# J2000.0
	MeanAnomaly     173.109	#
	}

	RotationPeriod  10   # Guess

	Albedo 0.07
}


# Minor satellites of Neptune

"Naiad:Neptune III:1989 N 6" "Sol/Neptune"
{
	Class "minormoon"
	Texture	 	"asteroid.jpg"
	SemiAxes [ 47 30 26 ]

	EllipticalOrbit
	{
	Period		0.294396
	SemiMajorAxis	48227
	Eccentricity	0.0004
	Inclination	5.167	#
	AscendingNode	8.998	#
	ArgOfPericenter	30.956	# J2000.0
	MeanAnomaly     7.538	#
	}

	Obliquity		  0.1
	EquatorAscendingNode	346.7
	RotationOffset		242.9

	Albedo 0.060
}

"Thalassa:Neptune IV:1989 N 5" "Sol/Neptune"
{
	Class "minormoon"
	Texture	 	"asteroid.jpg"
	SemiAxes [ 54 50 26 ]

	EllipticalOrbit
	{
	Period		0.311485
	SemiMajorAxis	50075
	Eccentricity	0.0002
	Inclination	0.381	#
	AscendingNode	353.390	#
	ArgOfPericenter	274.850	# J2000.0
	MeanAnomaly     350.880	#
	}

	RotationOffset		77.6

	Albedo 0.060
}

"Despina:Neptune V:1989 N 3" "Sol/Neptune"
{
	Class "minormoon"
	Texture	 	"asteroid.jpg"
	SemiAxes [ 90 74 64 ]

	EllipticalOrbit
	{
	Period		0.334655
	SemiMajorAxis	52526
	Eccentricity	0.0002
	Inclination	0.589	#
	AscendingNode	334.279	#
	ArgOfPericenter	133.891	# J2000.0
	MeanAnomaly     349.678	#
	}

	RotationOffset		282.0
	
	Albedo 0.059
}

"Galatea:Neptune VI:1989 N 4" "Sol/Neptune"
{
	Class "minormoon"
	Texture	 	"asteroid.jpg"
	SemiAxes [ 102 92 72 ]

	EllipticalOrbit
	{
	Period		0.428745
	SemiMajorAxis	61953
	Eccentricity	0.0000
	Inclination	0.565	#
	AscendingNode	327.929	#
	ArgOfPericenter	89.060	# J2000.0
	MeanAnomaly     2.357	#
	}

	RotationOffset		233.6

	Albedo 0.063
}
